[{"OBJECT_NAME":"STARLINK-1559","OBJECT_ID":"2020-055BC","EPOCH":"2026-03-09T05:36:23.522976","MEAN_MOTION":15.29461733,"ECCENTRICITY":0.0004229,"INCLINATION":53.0254,"RA_OF_ASC_NODE":76.0659,"ARG_OF_PERICENTER":33.971,"MEAN_ANOMALY":326.1559,"EPHEMERIS_TYPE":0,"CLASSIFICATION_TYPE":"U","NORAD_CAT_ID":46077,"ELEMENT_SET_NO":999,"REV_AT_EPOCH":30951,"BSTAR":0.0014778793,"MEAN_MOTION_DOT":0.00042685,"MEAN_MOTION_DDOT":0},{"OBJECT_NAME":"STARLINK-32710","OBJECT_ID":"2025-008T","EPOCH":"2026-03-09T00:08:03.895296","MEAN_MOTION":15.27583206,"ECCENTRICITY":0.00033494,"INCLINATION":43.0054,"RA_OF_ASC_NODE":281.4422,"ARG_OF_PERICENTER":264.1752,"MEAN_ANOMALY":95.8718,"EPHEMERIS_TYPE":0,"CLASSIFICATION_TYPE":"U","NORAD_CAT_ID":62604,"ELEMENT_SET_NO":999,"REV_AT_EPOCH":6546,"BSTAR":0.0012655591,"MEAN_MOTION_DOT":0.00034734,"MEAN_MOTION_DDOT":0}]
