STARLINK-1559           
1 46077U 20055BC  26068.23360559  .00042685  00000+0  14779-2 0  9995
2 46077  53.0254  76.0659 0004229  33.9710 326.1559 15.29461733309518
STARLINK-32710          
1 62604U 25008T   26068.00560064  .00034734  00000+0  12656-2 0  9998
2 62604  43.0054 281.4422 0003349 264.1752  95.8718 15.27583206 65463
